CCSDS_OEM_VERS = 1.0
CREATION_DATE  = 2017-05-11T11:19:06
ORIGINATOR     = GMAT USER

META_START
OBJECT_NAME          = MOPSSat_alt_35785_km_RAAN_90_116
OBJECT_ID            = SatId
CENTER_NAME          = Earth
REF_FRAME            = EME2000
TIME_SYSTEM          = UTC
START_TIME           = 2017-01-01T00:00:00.000
USEABLE_START_TIME   = 2017-01-01T00:00:00.000
USEABLE_STOP_TIME    = 2017-01-02T00:00:00.000
STOP_TIME            = 2017-01-02T00:00:00.000
INTERPOLATION        = Lagrange
INTERPOLATION_DEGREE = 7 
META_STOP


                                                                                   

2017-01-01T22:00:00.000   2.405132612476292e+04   2.578756610355611e+04  -2.105523367841785e+03  -2.906803310780303e+00   2.144555432234236e+00   2.544299056901363e-01
2017-01-01T22:00:10.000   2.402224721971824e+04   2.580899999427115e+04  -2.102978116889074e+03  -2.908977277449881e+00   2.142222162184786e+00   2.546202480320323e-01
2017-01-01T22:00:20.000   2.399314658424040e+04   2.583041053832599e+04  -2.100430963321024e+03  -2.911149403197346e+00   2.139886105114176e+00   2.548104292646364e-01
2017-01-01T22:00:30.000   2.396402423698915e+04   2.585179770768877e+04  -2.097881908770653e+03  -2.913319683647877e+00   2.137547262259762e+00   2.550004490049017e-01
2017-01-01T22:00:40.000   2.393488019673741e+04   2.587316147428901e+04  -2.095330954880896e+03  -2.915488114420704e+00   2.135205634872807e+00   2.551903068692603e-01
2017-01-01T22:00:50.000   2.390571448170276e+04   2.589450181050790e+04  -2.092778103246068e+03  -2.917654691178898e+00   2.132861224164780e+00   2.553800024779825e-01
2017-01-01T22:01:00.000   2.387652711021751e+04   2.591581868868670e+04  -2.090223355470539e+03  -2.919819409579476e+00   2.130514031361186e+00   2.555695354508089e-01
2017-01-01T22:01:10.000   2.384731810055592e+04   2.593711208125398e+04  -2.087666713153592e+03  -2.921982265286319e+00   2.128164057687715e+00   2.557589054080805e-01
2017-01-01T22:01:20.000   2.381808747139821e+04   2.595838196038308e+04  -2.085108177930048e+03  -2.924143253935453e+00   2.125811304407451e+00   2.559481119676991e-01
2017-01-01T22:01:30.000   2.378883524144805e+04   2.597962829827534e+04  -2.082547751436779e+03  -2.926302371163759e+00   2.123455772790233e+00   2.561371547476419e-01
2017-01-01T22:01:40.000   2.375956142952071e+04   2.600085106709485e+04  -2.079985435320431e+03  -2.928459612602379e+00   2.121097464119718e+00   2.563260333653831e-01
2017-01-01T22:01:50.000   2.373026605451018e+04   2.602205023899519e+04  -2.077421231234538e+03  -2.930614973879404e+00   2.118736379690819e+00   2.565147474381291e-01
2017-01-01T22:02:00.000   2.370094913537152e+04   2.604322578613007e+04  -2.074855140837979e+03  -2.932768450620989e+00   2.116372520808227e+00   2.567032965829176e-01
2017-01-01T22:02:10.000   2.367161069108583e+04   2.606437768067878e+04  -2.072287165791920e+03  -2.934920038453955e+00   2.114005888783599e+00   2.568916804168440e-01
2017-01-01T22:02:20.000   2.364225074064508e+04   2.608550589485951e+04  -2.069717307758471e+03  -2.937069733007118e+00   2.111636484934403e+00   2.570798985571778e-01
2017-01-01T22:02:30.000   2.361286930301601e+04   2.610661040095258e+04  -2.067145568397543e+03  -2.939217529913705e+00   2.109264310580940e+00   2.572679506215755e-01
2017-01-01T22:02:40.000   2.358346639723009e+04   2.612769117123716e+04  -2.064571949374708e+03  -2.941363424804905e+00   2.106889367053640e+00   2.574558362275140e-01
2017-01-01T22:02:50.000   2.355404204199388e+04   2.614874817826674e+04  -2.061996452327105e+03  -2.943507413337963e+00   2.104511655661500e+00   2.576435549947525e-01
2017-01-01T22:03:00.000   2.352459625616070e+04   2.616978139453495e+04  -2.059419078904716e+03  -2.945649491162141e+00   2.102131177730290e+00   2.578311065423500e-01
2017-01-01T22:03:10.000   2.349512905855259e+04   2.619079079260225e+04  -2.056839830754789e+03  -2.947789653931614e+00   2.099747934588151e+00   2.580184904897961e-01
2017-01-01T22:03:20.000   2.346564046864913e+04   2.621177634460457e+04  -2.054258709582125e+03  -2.949927897255447e+00   2.097361927621307e+00   2.582057064526306e-01
2017-01-01T22:03:30.000   2.343613050589882e+04   2.623273802274502e+04  -2.051675717088806e+03  -2.952064216747674e+00   2.094973158218393e+00   2.583927540468284e-01
2017-01-01T22:03:40.000   2.340659918989658e+04   2.625367579916691e+04  -2.049090854989736e+03  -2.954198608014388e+00   2.092581627784810e+00   2.585796328876683e-01
2017-01-01T22:03:50.000   2.337704653991471e+04   2.627458964629071e+04  -2.046504124971573e+03  -2.956331066688042e+00   2.090187337704854e+00   2.587663425927373e-01
2017-01-01T22:04:00.000   2.334747257528955e+04   2.629547953653573e+04  -2.043915528726591e+03  -2.958461588399135e+00   2.087790289372931e+00   2.589528827794514e-01
2017-01-01T22:04:10.000   2.331787731533243e+04   2.631634544238445e+04  -2.041325067944870e+03  -2.960590168782769e+00   2.085390484186381e+00   2.591392530656293e-01
2017-01-01T22:04:20.000   2.328826077936299e+04   2.633718733635628e+04  -2.038732744317220e+03  -2.962716803476027e+00   2.082987923548106e+00   2.593254530692628e-01
2017-01-01T22:04:30.000   2.325862298672692e+04   2.635800519099733e+04  -2.036138559536731e+03  -2.964841488116901e+00   2.080582608868085e+00   2.595114824084232e-01
2017-01-01T22:04:40.000   2.322896395683141e+04   2.637879897885563e+04  -2.033542515301880e+03  -2.966964218341768e+00   2.078174541566252e+00   2.596973407010407e-01
2017-01-01T22:04:50.000   2.319928370916058e+04   2.639956867246810e+04  -2.030944613317879e+03  -2.969084989784115e+00   2.075763723073695e+00   2.598830275647918e-01
2017-01-01T22:05:00.000   2.316958226331186e+04   2.642031424433792e+04  -2.028344855299857e+03  -2.971203798072186e+00   2.073350154835695e+00   2.600685426168938e-01
2017-01-01T22:05:10.000   2.313985963890517e+04   2.644103566699692e+04  -2.025743242964914e+03  -2.973320638835389e+00   2.070933838304319e+00   2.602538854746661e-01
2017-01-01T22:05:20.000   2.311011585597664e+04   2.646173291273502e+04  -2.023139778066581e+03  -2.975435507676613e+00   2.068514774970541e+00   2.604390557531057e-01
2017-01-01T22:05:30.000   2.308035093450200e+04   2.648240595392882e+04  -2.020534462353104e+03  -2.977548400205853e+00   2.066092966325396e+00   2.606240530678322e-01
2017-01-01T22:05:40.000   2.305056489457350e+04   2.650305476291924e+04  -2.017927297582933e+03  -2.979659312027718e+00   2.063668413874408e+00   2.608088770339925e-01
2017-01-01T22:05:50.000   2.302075775571515e+04   2.652367931248693e+04  -2.015318285464771e+03  -2.981768238790010e+00   2.061241119081856e+00   2.609935272705162e-01
2017-01-01T22:06:00.000   2.299092953756556e+04   2.654427957537795e+04  -2.012707427717368e+03  -2.983875176135290e+00   2.058811083426351e+00   2.611780033958730e-01
2017-01-01T22:06:10.000   2.296108025972369e+04   2.656485552441193e+04  -2.010094726055989e+03  -2.985980119711902e+00   2.056378308388310e+00   2.613623050290394e-01
2017-01-01T22:06:20.000   2.293120994213244e+04   2.658540713221217e+04  -2.007480182226019e+03  -2.988083065146459e+00   2.053942795481086e+00   2.615464317870890e-01
2017-01-01T22:06:30.000   2.290131860479469e+04   2.660593437140713e+04  -2.004863797978084e+03  -2.990184008064388e+00   2.051504546227973e+00   2.617303832869908e-01
2017-01-01T22:06:40.000   2.287140626777210e+04   2.662643721462905e+04  -2.002245575067962e+03  -2.992282944089833e+00   2.049063562162063e+00   2.619141591456022e-01
2017-01-01T22:06:50.000   2.284147295147553e+04   2.664691563432025e+04  -1.999625515281997e+03  -2.994379868825763e+00   2.046619844850087e+00   2.620977589779256e-01
2017-01-01T22:07:00.000   2.281151867627499e+04   2.666736960299561e+04  -1.997003620402957e+03  -2.996474777880911e+00   2.044173395860462e+00   2.622811823994689e-01
2017-01-01T22:07:10.000   2.278154346265296e+04   2.668779909313886e+04  -1.994379892223456e+03  -2.998567666859166e+00   2.041724216775843e+00   2.624644290253148e-01
2017-01-01T22:07:20.000   2.275154733052806e+04   2.670820407766388e+04  -1.991754332486754e+03  -3.000658531406822e+00   2.039272309137878e+00   2.626474984742589e-01
2017-01-01T22:07:30.000   2.272153029993114e+04   2.672858452945329e+04  -1.989126942945938e+03  -3.002747367165341e+00   2.036817674502442e+00   2.628303903646739e-01
2017-01-01T22:07:40.000   2.269149239085286e+04   2.674894042146342e+04  -1.986497725350578e+03  -3.004834169782090e+00   2.034360314427202e+00   2.630131043154493e-01
2017-01-01T22:07:50.000   2.266143362362976e+04   2.676927172645725e+04  -1.983866681480519e+03  -3.006918934883057e+00   2.031900230503080e+00   2.631956399436022e-01
2017-01-01T22:08:00.000   2.263135401865847e+04   2.678957841720382e+04  -1.981233813120867e+03  -3.009001658093221e+00   2.029437424331020e+00   2.633779968660619e-01
2017-01-01T22:08:10.000   2.260125359639450e+04   2.680986046647687e+04  -1.978599122061884e+03  -3.011082335036460e+00   2.026971897521831e+00   2.635601746996604e-01
2017-01-01T22:08:20.000   2.257113237764446e+04   2.683011784686322e+04  -1.975962610124564e+03  -3.013160961315835e+00   2.024503651720278e+00   2.637421730594070e-01
2017-01-01T22:08:30.000   2.254099038317358e+04   2.685035053102242e+04  -1.973324279126279e+03  -3.015237532540295e+00   2.022032688572804e+00   2.639239915608271e-01
2017-01-01T22:08:40.000   2.251082763386289e+04   2.687055849158221e+04  -1.970684130894543e+03  -3.017312044313957e+00   2.019559009740449e+00   2.641056298190217e-01
2017-01-01T22:08:50.000   2.248064415001728e+04   2.689074170160236e+04  -1.968042167206436e+03  -3.019384492283716e+00   2.017082616842109e+00   2.642870874528385e-01
2017-01-01T22:09:00.000   2.245043995205897e+04   2.691090013410964e+04  -1.965398389849314e+03  -3.021454872091536e+00   2.014603511511408e+00   2.644683640806921e-01
